[{"OBJECT_NAME":"ONEWEB-0702","OBJECT_ID":"2024-188Q","EPOCH":"2026-03-09T21:50:26.953152","MEAN_MOTION":13.11417735,"ECCENTRICITY":0.00028635,"INCLINATION":87.8879,"RA_OF_ASC_NODE":40.71,"ARG_OF_PERICENTER":83.8308,"MEAN_ANOMALY":276.3146,"EPHEMERIS_TYPE":0,"CLASSIFICATION_TYPE":"U","NORAD_CAT_ID":61608,"ELEMENT_SET_NO":999,"REV_AT_EPOCH":7147,"BSTAR":0.0016157282,"MEAN_MOTION_DOT":5.85e-6,"MEAN_MOTION_DDOT":0},{"OBJECT_NAME":"FENGYUN 1C DEB","OBJECT_ID":"1999-025ADV","EPOCH":"2026-03-09T22:33:41.075136","MEAN_MOTION":13.5951656,"ECCENTRICITY":0.02785257,"INCLINATION":98.619,"RA_OF_ASC_NODE":314.2729,"ARG_OF_PERICENTER":131.8978,"MEAN_ANOMALY":297.9221,"EPHEMERIS_TYPE":0,"CLASSIFICATION_TYPE":"U","NORAD_CAT_ID":30406,"ELEMENT_SET_NO":999,"REV_AT_EPOCH":94351,"BSTAR":0.0016365825,"MEAN_MOTION_DOT":1.529e-5,"MEAN_MOTION_DDOT":0}]
